OBJECT_NAME,OBJECT_ID,EPOCH,MEAN_MOTION,ECCENTRICITY,INCLINATION,RA_OF_ASC_NODE,ARG_OF_PERICENTER,MEAN_ANOMALY,EPHEMERIS_TYPE,CLASSIFICATION_TYPE,NORAD_CAT_ID,ELEMENT_SET_NO,REV_AT_EPOCH,BSTAR,MEAN_MOTION_DOT,MEAN_MOTION_DDOT
SMILE,2026-109A,2026-06-07T09:11:54.544416,7.54049028,.3310191,69.9787,209.3069,288.5544,45.7342,0,U,69123,999,248,-.36778157E-3,-.41E-6,0
STARLINK-37726,2026-110A,2026-06-18T01:44:58.507296,15.49206055,.00014447,97.2839,5.2986,87.9921,272.1496,0,U,69124,999,573,.33815365E-3,.18355E-3,0
STARLINK-37722,2026-110B,2026-06-18T06:00:02.000160,15.35363141,.00022331,97.2847,5.6173,61.8887,160.8876,0,U,69125,999,587,-.84516296E-1,-.2553746E-1,0
STARLINK-37715,2026-110C,2026-06-18T06:47:21.006528,15.33448237,.00024625,97.2843,5.6267,82.2093,277.9429,0,U,69126,999,577,.37375116E-3,.12012E-3,0
STARLINK-37706,2026-110D,2026-06-18T02:01:31.678752,15.33448100,.00020118,97.2838,5.4373,89.5157,270.6316,0,U,69127,999,574,.36802965E-3,.11826E-3,0
STARLINK-37723,2026-110E,2026-06-18T01:57:36.871200,15.33448075,.00019564,97.2834,5.4406,93.8708,266.2759,0,U,69128,999,574,.65987544E-3,.21291E-3,0
STARLINK-37720,2026-110F,2026-06-18T01:32:19.950720,15.49201594,.00025464,97.2832,5.3118,77.4670,282.6866,0,U,69129,999,573,.38441962E-3,.20883E-3,0
STARLINK-37533,2026-110G,2026-06-18T06:27:46.346688,15.33439174,.00017915,97.2849,5.6449,85.5369,274.6078,0,U,69130,999,577,.71433021E-3,.23053E-3,0
STARLINK-37530,2026-110H,2026-06-18T01:41:57.254784,15.33441824,.00024599,97.2846,5.4557,81.9163,278.2359,0,U,69131,999,574,.309217E-3,.992E-4,0
STARLINK-37660,2026-110J,2026-06-18T06:00:02.000160,15.36982382,.00018803,97.2853,5.6289,85.0562,177.6245,0,U,69132,999,582,-.57974336E-3,-.20966E-3,0
STARLINK-37633,2026-110K,2026-06-18T06:00:02.000160,15.33402013,.00018909,97.2850,5.6489,114.4777,184.3649,0,U,69133,999,582,-.36071421E-3,-.11687E-3,0
STARLINK-37361,2026-110L,2026-06-18T03:04:10.707744,15.33344082,.0005978,97.2838,5.5313,62.6320,297.5530,0,U,69134,999,575,.32505011E-2,.106056E-2,0
STARLINK-37372,2026-110M,2026-06-18T06:00:02.000160,15.36984042,.00011605,97.2852,5.6524,62.7160,252.3544,0,U,69135,999,582,-.63987364E-3,-.23126E-3,0
STARLINK-37531,2026-110N,2026-06-18T06:00:02.000160,15.33453900,.00017433,97.2847,5.6655,93.1332,250.7194,0,U,69136,999,582,-.8698161E-3,-.28061E-3,0
STARLINK-37662,2026-110P,2026-06-18T06:00:02.000160,15.36982132,.00012597,97.2849,5.6565,77.7474,246.8843,0,U,69137,999,582,-.67179978E-3,-.24271E-3,0
STARLINK-37658,2026-110Q,2026-06-18T01:50:29.275008,15.49201825,.00015305,97.2853,5.4462,87.5188,272.6238,0,U,69138,999,574,.31832829E-3,.17268E-3,0
STARLINK-37659,2026-110R,2026-06-18T06:40:35.900256,15.49214985,.00006789,97.2850,5.6315,93.9837,266.1492,0,U,69139,999,577,.54178825E-3,.29513E-3,0
STARLINK-37653,2026-110S,2026-06-18T02:05:07.588032,15.49204668,.00028251,97.2823,5.4349,67.9827,292.1724,0,U,69140,999,574,.40692011E-3,.22117E-3,0
STARLINK-37654,2026-110T,2026-06-18T06:00:02.000160,15.36969824,.00013403,97.2847,5.6753,94.0091,278.5152,0,U,69141,999,582,-.53872833E-3,-.19483E-3,0
STARLINK-37655,2026-110U,2026-06-18T06:00:02.000160,15.36985149,.00011993,97.2850,5.6915,93.6169,312.8665,0,U,69142,999,582,-.66067591E-3,-.23873E-3,0
STARLINK-37636,2026-110V,2026-06-18T07:10:51.915936,15.33453565,.00020059,97.2849,5.7586,76.1472,283.9993,0,U,69143,999,578,.30754872E-3,.987E-4,0
STARLINK-37638,2026-110W,2026-06-18T07:06:55.286208,15.33447460,.0001282,97.2849,5.7632,83.6913,276.4476,0,U,69144,999,578,.61176473E-3,.19728E-3,0
STARLINK-37657,2026-110X,2026-06-17T12:38:35.141568,15.49212420,.00013028,97.2820,4.9711,96.0721,264.0679,0,U,69145,999,566,.57347262E-3,.31248E-3,0
STARLINK-37639,2026-110Y,2026-06-18T06:00:02.000160,15.33474436,.0001553,97.2854,5.7314,80.0197,53.7372,0,U,69146,999,587,-.66261187E-3,-.21427E-3,0
STARLINK-37661,2026-110Z,2026-06-18T01:33:35.152416,15.49206518,.00025657,97.2832,5.4646,79.1349,281.0190,0,U,69147,999,574,.47267727E-3,.25719E-3,0
STARLINK-37395,2026-111A,2026-06-18T06:00:02.000160,15.56839711,.00017526,53.1600,146.9869,81.3576,136.3974,0,U,69148,999,572,-.36688356E-1,-.2351246E-1,0
STARLINK-37346,2026-111B,2026-06-18T02:00:57.893760,15.49330210,.00012031,53.1594,148.5272,101.0040,259.1105,0,U,69149,999,438,.52676445E-3,.28979E-3,0
STARLINK-37332,2026-111C,2026-06-18T07:21:08.154432,15.49326627,.00008641,53.1601,147.7919,113.0905,247.0195,0,U,69150,999,441,.8605362E-3,.47734E-3,0
STARLINK-37297,2026-111D,2026-06-18T06:00:02.000160,15.49268088,.00015757,53.1604,147.0172,91.3444,110.5746,0,U,69151,999,572,.79542809E-3,.43976E-3,0
STARLINK-37317,2026-111E,2026-06-18T06:00:02.000160,15.53407113,.00010935,53.1606,146.8029,110.7599,196.8162,0,U,69152,999,572,-.44379024E-1,-.2532921E-1,0
