SMILE                   
1 69123U 26109A   26158.38327019 -.00000041  00000+0 -36778-3 0  9994
2 69123  69.9787 209.3069 3310191 288.5544  45.7342  7.54049028  2480
STARLINK-37726          
1 69124U 26110A   26169.07289939  .00018355  00000+0  33815-3 0  9997
2 69124  97.2839   5.2986 0001444  87.9921 272.1496 15.49206055  5734
STARLINK-37722          
1 69125U 26110B   26169.25002315 -.02553746  00000+0 -84516-1 0  9993
2 69125  97.2847   5.6173 0002233  61.8887 160.8876 15.35363141  5870
STARLINK-37715          
1 69126U 26110C   26169.28288202  .00012012  00000+0  37375-3 0  9993
2 69126  97.2843   5.6267 0002462  82.2093 277.9429 15.33448237  5772
STARLINK-37706          
1 69127U 26110D   26169.08439443  .00011826  00000+0  36803-3 0  9994
2 69127  97.2838   5.4373 0002011  89.5157 270.6316 15.33448100  5745
STARLINK-37723          
1 69128U 26110E   26169.08167675  .00021291  00000+0  65988-3 0  9993
2 69128  97.2834   5.4406 0001956  93.8708 266.2759 15.33448075  5749
STARLINK-37720          
1 69129U 26110F   26169.06411980  .00020883  00000+0  38442-3 0  9994
2 69129  97.2832   5.3118 0002546  77.4670 282.6866 15.49201594  5739
STARLINK-37533          
1 69130U 26110G   26169.26928642  .00023053  00000+0  71433-3 0  9995
2 69130  97.2849   5.6449 0001791  85.5369 274.6078 15.33439174  5775
STARLINK-37530          
1 69131U 26110H   26169.07080156  .00009920  00000+0  30922-3 0  9999
2 69131  97.2846   5.4557 0002459  81.9163 278.2359 15.33441824  5749
STARLINK-37660          
1 69132U 26110J   26169.25002315 -.00020966  00000+0 -57974-3 0  9992
2 69132  97.2853   5.6289 0001880  85.0562 177.6245 15.36982382  5824
STARLINK-37633          
1 69133U 26110K   26169.25002315 -.00011687  00000+0 -36071-3 0  9998
2 69133  97.2850   5.6489 0001890 114.4777 184.3649 15.33402013  5828
STARLINK-37361          
1 69134U 26110L   26169.12790171  .00106056  00000+0  32505-2 0  9999
2 69134  97.2838   5.5313 0005978  62.6320 297.5530 15.33344082  5758
STARLINK-37372          
1 69135U 26110M   26169.25002315 -.00023126  00000+0 -63987-3 0  9997
2 69135  97.2852   5.6524 0001160  62.7160 252.3544 15.36984042  5823
STARLINK-37531          
1 69136U 26110N   26169.25002315 -.00028061  00000+0 -86982-3 0  9991
2 69136  97.2847   5.6655 0001743  93.1332 250.7194 15.33453900  5823
STARLINK-37662          
1 69137U 26110P   26169.25002315 -.00024271  00000+0 -67180-3 0  9990
2 69137  97.2849   5.6565 0001259  77.7474 246.8843 15.36982132  5827
STARLINK-37658          
1 69138U 26110Q   26169.07672772  .00017268  00000+0  31833-3 0  9993
2 69138  97.2853   5.4462 0001530  87.5188 272.6238 15.49201825  5743
STARLINK-37659          
1 69139U 26110R   26169.27819329  .00029513  00000+0  54179-3 0  9991
2 69139  97.2850   5.6315 0000678  93.9837 266.1492 15.49214985  5778
STARLINK-37653          
1 69140U 26110S   26169.08689338  .00022117  00000+0  40692-3 0  9995
2 69140  97.2823   5.4349 0002825  67.9827 292.1724 15.49204668  5742
STARLINK-37654          
1 69141U 26110T   26169.25002315 -.00019483  00000+0 -53873-3 0  9998
2 69141  97.2847   5.6753 0001340  94.0091 278.5152 15.36969824  5825
STARLINK-37655          
1 69142U 26110U   26169.25002315 -.00023873  00000+0 -66068-3 0  9997
2 69142  97.2850   5.6915 0001199  93.6169 312.8665 15.36985149  5822
STARLINK-37636          
1 69143U 26110V   26169.29921199  .00009870  00000+0  30755-3 0  9995
2 69143  97.2849   5.7586 0002005  76.1472 283.9993 15.33453565  5782
STARLINK-37638          
1 69144U 26110W   26169.29647322  .00019728  00000+0  61176-3 0  9993
2 69144  97.2849   5.7632 0001282  83.6913 276.4476 15.33447460  5784
STARLINK-37657          
1 69145U 26110X   26168.52679562  .00031248  00000+0  57347-3 0  9996
2 69145  97.2820   4.9711 0001302  96.0721 264.0679 15.49212420  5669
STARLINK-37639          
1 69146U 26110Y   26169.25002315 -.00021427  00000+0 -66261-3 0  9999
2 69146  97.2854   5.7314 0001553  80.0197  53.7372 15.33474436  5879
STARLINK-37661          
1 69147U 26110Z   26169.06499019  .00025719  00000+0  47268-3 0  9992
2 69147  97.2832   5.4646 0002565  79.1349 281.0190 15.49206518  5744
STARLINK-37395          
1 69148U 26111A   26169.25002315 -.02351246  00000+0 -36688-1 0  9997
2 69148  53.1600 146.9869 0001752  81.3576 136.3974 15.56839711  5726
STARLINK-37346          
1 69149U 26111B   26169.08400340  .00028979  00000+0  52676-3 0  9996
2 69149  53.1594 148.5272 0001203 101.0040 259.1105 15.49330210  4385
STARLINK-37332          
1 69150U 26111C   26169.30634438  .00047734  00000+0  86054-3 0  9997
2 69150  53.1601 147.7919 0000864 113.0905 247.0195 15.49326627  4416
STARLINK-37297          
1 69151U 26111D   26169.25002315  .00043976  00000+0  79543-3 0  9994
2 69151  53.1604 147.0172 0001575  91.3444 110.5746 15.49268088  5727
STARLINK-37317          
1 69152U 26111E   26169.25002315 -.02532921  00000+0 -44379-1 0  9999
2 69152  53.1606 146.8029 0001093 110.7599 196.8162 15.53407113  5728
